0 NOAA 8 DEB
1 38841U 83022N   13281.25780443  .00004857  00000-0  17045-2 0   812
2 38841 098.4553 294.0263 0015855 147.9886 268.6532 14.35372160106903
0 NOAA 8 DEB
1 38841U 83022N   13283.27939009  .00007539  00000-0  26347-2 0   826
2 38841 098.4557 296.0076 0015893 142.7152 274.2315 14.35400519107196
0 NOAA 8 DEB
1 38841U 83022N   13286.27779172  .00005733  00000-0  20065-2 0   849
2 38841 098.4553 298.9465 0015906 134.8443 287.4328 14.35433156107626
0 NOAA 8 DEB
1 38841U 83022N   13292.27202696  .00007392  00000-0  25777-2 0   857
2 38841 098.4539 304.8211 0015770 118.7628 302.1828 14.35517873108485
0 NOAA 8 DEB
1 38841U 83022N   13294.29415662  .00008954  00000-0  31173-2 0   863
2 38841 098.4541 306.8028 0015676 113.3705 311.7544 14.35541184108773
